{"type": "FeatureCollection", "features": [ {"type": "Feature", "properties": {"norad_id": 32289, "name": "YAOGAN-3", "group": "resource", "lat": 68.80501099821753, "lon": -147.93101540616064, "alt_km": 591.0331888044147, "timestamp": "2025-12-10T14:53:36.779243+00:00", "meta": {"OBJECT_NAME": "YAOGAN-3", "OBJECT_ID": "2007-055A", "EPOCH": "2025-12-10T07:57:19.154880", "MEAN_MOTION": 14.89836425, "ECCENTRICITY": 0.00013316, "INCLINATION": 97.8367, "RA_OF_ASC_NODE": 10.9781, "ARG_OF_PERICENTER": 72.5653, "MEAN_ANOMALY": 287.571, "EPHEMERIS_TYPE": 0, "CLASSIFICATION_TYPE": "U", "NORAD_CAT_ID": 32289, "ELEMENT_SET_NO": 999, "REV_AT_EPOCH": 97773, "BSTAR": 0.00023223461, "MEAN_MOTION_DOT": 2.175e-05, "MEAN_MOTION_DDOT": 0}, "tle": {"line1": "1 32289U 07055A   25344.33147170  .00002175  00000+0  23223-3 0  9994", "line2": "2 32289  97.8367  10.9781 0001331  72.5653 287.5710 14.89836425977731"}}, "geometry": {"type": "Point", "coordinates": [-147.93101540616064, 68.80501099821753]}}, {"type": "Feature", "properties": {"norad_id": 32376, "name": "COSMO-SKYMED 2", "group": "resource", "lat": 81.67485444204176, "lon": 94.782356034222, "alt_km": 613.984722983364, "timestamp": "2025-12-10T14:53:36.779257+00:00", "meta": {"OBJECT_NAME": "COSMO-SKYMED 2", "OBJECT_ID": "2007-059A", "EPOCH": "2025-12-10T06:23:59.670240", "MEAN_MOTION": 14.82161559, "ECCENTRICITY": 0.00015309, "INCLINATION": 97.8812, "RA_OF_ASC_NODE": 165.6277, "ARG_OF_PERICENTER": 85.3871, "MEAN_ANOMALY": 274.7517, "EPHEMERIS_TYPE": 0, "CLASSIFICATION_TYPE": "U", "NORAD_CAT_ID": 32376, "ELEMENT_SET_NO": 999, "REV_AT_EPOCH": 97401, "BSTAR": 0.00012559809, "MEAN_MOTION_DOT": 9.48e-06, "MEAN_MOTION_DDOT": 0}, "tle": {"line1": "1 32376U 07059A   25344.26666285  .00000948  00000+0  12560-3 0  9998", "line2": "2 32376  97.8812 165.6277 0001530  85.3871 274.7517 14.82161559974019"}}, "geometry": {"type": "Point", "coordinates": [94.782356034222, 81.67485444204176]}}, {"type": "Feature", "properties": {"norad_id": 32382, "name": "RADARSAT-2", "group": "resource", "lat": 71.5745098631163, "lon": -37.70521854621619, "alt_km": 784.0786523957277, "timestamp": "2025-12-10T14:53:36.779267+00:00", "meta": {"OBJECT_NAME": "RADARSAT-2", "OBJECT_ID": "2007-061A", "EPOCH": "2025-12-10T07:49:59.924064", "MEAN_MOTION": 14.29981443, "ECCENTRICITY": 0.00011272, "INCLINATION": 98.5796, "RA_OF_ASC_NODE": 348.9512, "ARG_OF_PERICENTER": 87.3809, "MEAN_ANOMALY": 272.7502, "EPHEMERIS_TYPE": 0, "CLASSIFICATION_TYPE": "U", "NORAD_CAT_ID": 32382, "ELEMENT_SET_NO": 999, "REV_AT_EPOCH": 93896, "BSTAR": 0.00010820371, "MEAN_MOTION_DOT": 2.35e-06, "MEAN_MOTION_DDOT": 0}, "tle": {"line1": "1 32382U 07061A   25344.32638801  .00000235  00000+0  10820-3 0  9994", "line2": "2 32382  98.5796 348.9512 0001127  87.3809 272.7502 14.29981443938967"}}, "geometry": {"type": "Point", "coordinates": [-37.70521854621619, 71.5745098631163]}}, {"type": "Feature", "properties": {"norad_id": 32783, "name": "CARTOSAT-2A", "group": "resource", "lat": -70.02472045480526, "lon": -167.62336250508454, "alt_km": 644.1984600745509, "timestamp": "2025-12-10T14:53:36.779277+00:00", "meta": {"OBJECT_NAME": "CARTOSAT-2A", "OBJECT_ID": "2008-021A", "EPOCH": "2025-12-10T07:15:50.776992", "MEAN_MOTION": 14.78929984, "ECCENTRICITY": 0.00121262, "INCLINATION": 97.7928, "RA_OF_ASC_NODE": 34.2021, "ARG_OF_PERICENTER": 12.2806, "MEAN_ANOMALY": 347.8699, "EPHEMERIS_TYPE": 0, "CLASSIFICATION_TYPE": "U", "NORAD_CAT_ID": 32783, "ELEMENT_SET_NO": 999, "REV_AT_EPOCH": 95088, "BSTAR": 0.00020605878, "MEAN_MOTION_DOT": 1.471e-05, "MEAN_MOTION_DDOT": 0}, "tle": {"line1": "1 32783U 08021A   25344.30267103  .00001471  00000+0  20606-3 0  9993", "line2": "2 32783  97.7928  34.2021 0012126  12.2806 347.8699 14.78929984950887"}}, "geometry": {"type": "Point", "coordinates": [-167.62336250508454, -70.02472045480526]}}, {"type": "Feature", "properties": {"norad_id": 33320, "name": "HUANJING 1A (HJ-1A)", "group": "resource", "lat": 79.80003862889002, "lon": -75.36199567528904, "alt_km": 600.7210395536349, "timestamp": "2025-12-10T14:53:36.779287+00:00", "meta": {"OBJECT_NAME": "HUANJING 1A (HJ-1A)", "OBJECT_ID": "2008-041A", "EPOCH": "2025-12-10T06:25:35.447232", "MEAN_MOTION": 14.83383307, "ECCENTRICITY": 0.00203597, "INCLINATION": 97.6544, "RA_OF_ASC_NODE": 332.6693, "ARG_OF_PERICENTER": 42.1863, "MEAN_ANOMALY": 318.0914, "EPHEMERIS_TYPE": 0, "CLASSIFICATION_TYPE": "U", "NORAD_CAT_ID": 33320, "ELEMENT_SET_NO": 999, "REV_AT_EPOCH": 93039, "BSTAR": 0.00038977285, "MEAN_MOTION_DOT": 3.157e-05, "MEAN_MOTION_DDOT": 0}, "tle": {"line1": "1 33320U 08041A   25344.26777138  .00003157  00000+0  38977-3 0  9995", "line2": "2 33320  97.6544 332.6693 0020359  42.1863 318.0914 14.83383307930393"}}, "geometry": {"type": "Point", "coordinates": [-75.36199567528904, 79.80003862889002]}}, {"type": "Feature", "properties": {"norad_id": 33321, "name": "HUANJING 1B (HJ-1B)", "group": "resource", "lat": -51.18158065094259, "lon": -13.686031007135123, "alt_km": 645.9865746988153, "timestamp": "2025-12-10T14:53:36.779297+00:00", "meta": {"OBJECT_NAME": "HUANJING 1B (HJ-1B)", "OBJECT_ID": "2008-041B", "EPOCH": "2025-12-10T07:01:46.965216", "MEAN_MOTION": 14.82812638, "ECCENTRICITY": 0.00382897, "INCLINATION": 97.64, "RA_OF_ASC_NODE": 336.3968, "ARG_OF_PERICENTER": 83.3568, "MEAN_ANOMALY": 277.2002, "EPHEMERIS_TYPE": 0, "CLASSIFICATION_TYPE": "U", "NORAD_CAT_ID": 33321, "ELEMENT_SET_NO": 999, "REV_AT_EPOCH": 93041, "BSTAR": 0.00028899851, "MEAN_MOTION_DOT": 2.316e-05, "MEAN_MOTION_DDOT": 0}, "tle": {"line1": "1 33321U 08041B   25344.29290469  .00002316  00000+0  28900-3 0  9997", "line2": "2 33321  97.6400 336.3968 0038289  83.3568 277.2002 14.82812638930411"}}, "geometry": {"type": "Point", "coordinates": [-13.686031007135123, -51.18158065094259]}}, {"type": "Feature", "properties": {"norad_id": 33331, "name": "GEOEYE 1", "group": "resource", "lat": 70.16176154928567, "lon": 32.59890604194291, "alt_km": 672.4917378835098, "timestamp": "2025-12-10T14:53:36.779307+00:00", "meta": {"OBJECT_NAME": "GEOEYE 1", "OBJECT_ID": "2008-042A", "EPOCH": "2025-12-10T06:22:10.649856", "MEAN_MOTION": 14.64807512, "ECCENTRICITY": 0.00027573, "INCLINATION": 98.1255, "RA_OF_ASC_NODE": 55.577, "ARG_OF_PERICENTER": 287.5968, "MEAN_ANOMALY": 72.4934, "EPHEMERIS_TYPE": 0, "CLASSIFICATION_TYPE": "U", "NORAD_CAT_ID": 33331, "ELEMENT_SET_NO": 999, "REV_AT_EPOCH": 92249, "BSTAR": 0.00020206297, "MEAN_MOTION_DOT": 1.03e-05, "MEAN_MOTION_DDOT": 0}, "tle": {"line1": "1 33331U 08042A   25344.26540104  .00001030  00000+0  20206-3 0  9993", "line2": "2 33331  98.1255  55.5770 0002757 287.5968  72.4934 14.64807512922493"}}, "geometry": {"type": "Point", "coordinates": [32.59890604194291, 70.16176154928567]}}, {"type": "Feature", "properties": {"norad_id": 33396, "name": "THEOS", "group": "resource", "lat": -81.3745659458194, "lon": 137.8577039330949, "alt_km": 833.1640852791234, "timestamp": "2025-12-10T14:53:36.779317+00:00", "meta": {"OBJECT_NAME": "THEOS", "OBJECT_ID": "2008-049A", "EPOCH": "2025-12-10T06:51:56.130048", "MEAN_MOTION": 14.20096838, "ECCENTRICITY": 0.00011234, "INCLINATION": 98.5866, "RA_OF_ASC_NODE": 42.4477, "ARG_OF_PERICENTER": 96.0218, "MEAN_ANOMALY": 264.1087, "EPHEMERIS_TYPE": 0, "CLASSIFICATION_TYPE": "U", "NORAD_CAT_ID": 33396, "ELEMENT_SET_NO": 999, "REV_AT_EPOCH": 89115, "BSTAR": 0.00023119386, "MEAN_MOTION_DOT": 4.5e-06, "MEAN_MOTION_DDOT": 0}, "tle": {"line1": "1 33396U 08049A   25344.28606632  .00000450  00000+0  23119-3 0  9993", "line2": "2 33396  98.5866  42.4477 0001123  96.0218 264.1087 14.20096838891152"}}, "geometry": {"type": "Point", "coordinates": [137.8577039330949, -81.3745659458194]}}, {"type": "Feature", "properties": {"norad_id": 33412, "name": "COSMO-SKYMED 3", "group": "resource", "lat": 65.8104465719734, "lon": 177.09788346889204, "alt_km": 548.6043231945241, "timestamp": "2025-12-10T14:53:36.779328+00:00", "meta": {"OBJECT_NAME": "COSMO-SKYMED 3", "OBJECT_ID": "2008-054A", "EPOCH": "2025-12-10T06:37:09.416352", "MEAN_MOTION": 15.05312611, "ECCENTRICITY": 0.00158639, "INCLINATION": 97.8462, "RA_OF_ASC_NODE": 194.6254, "ARG_OF_PERICENTER": 182.3755, "MEAN_ANOMALY": 177.7398, "EPHEMERIS_TYPE": 0, "CLASSIFICATION_TYPE": "U", "NORAD_CAT_ID": 33412, "ELEMENT_SET_NO": 999, "REV_AT_EPOCH": 92850, "BSTAR": 0.00042725758, "MEAN_MOTION_DOT": 6.067e-05, "MEAN_MOTION_DDOT": 0}, "tle": {"line1": "1 33412U 08054A   25344.27580343  .00006067  00000+0  42726-3 0  9992", "line2": "2 33412  97.8462 194.6254 0015863 182.3755 177.7398 15.05312611928507"}}, "geometry": {"type": "Point", "coordinates": [177.09788346889204, 65.8104465719734]}}, {"type": "Feature", "properties": {"norad_id": 33446, "name": "YAOGAN-4", "group": "resource", "lat": -40.67685188791706, "lon": 87.87087751680698, "alt_km": 630.6871505918198, "timestamp": "2025-12-10T14:53:36.779337+00:00", "meta": {"OBJECT_NAME": "YAOGAN-4", "OBJECT_ID": "2008-061A", "EPOCH": "2025-12-10T07:25:11.200224", "MEAN_MOTION": 14.82670816, "ECCENTRICITY": 0.00137789, "INCLINATION": 97.918, "RA_OF_ASC_NODE": 274.4323, "ARG_OF_PERICENTER": 331.6323, "MEAN_ANOMALY": 28.4138, "EPHEMERIS_TYPE": 0, "CLASSIFICATION_TYPE": "U", "NORAD_CAT_ID": 33446, "ELEMENT_SET_NO": 999, "REV_AT_EPOCH": 91767, "BSTAR": 0.0003148175, "MEAN_MOTION_DOT": 2.489e-05, "MEAN_MOTION_DDOT": 0}, "tle": {"line1": "1 33446U 08061A   25344.30915741  .00002489  00000+0  31482-3 0  9996", "line2": "2 33446  97.9180 274.4323 0013778 331.6323  28.4138 14.82670816917677"}}, "geometry": {"type": "Point", "coordinates": [87.87087751680698, -40.67685188791706]}}]}